[{"OBJECT_NAME":"GHGSAT-C3","OBJECT_ID":"2022-057F","EPOCH":"2026-03-09T22:30:13.234752","MEAN_MOTION":15.32943835,"ECCENTRICITY":0.00073198,"INCLINATION":97.6431,"RA_OF_ASC_NODE":211.0668,"ARG_OF_PERICENTER":112.4588,"MEAN_ANOMALY":247.7429,"EPHEMERIS_TYPE":0,"CLASSIFICATION_TYPE":"U","NORAD_CAT_ID":52737,"ELEMENT_SET_NO":999,"REV_AT_EPOCH":21032,"BSTAR":0.00031249517,"MEAN_MOTION_DOT":9.871e-5,"MEAN_MOTION_DDOT":0},{"OBJECT_NAME":"STARLINK-32457","OBJECT_ID":"2024-196L","EPOCH":"2026-03-09T12:38:03.444864","MEAN_MOTION":15.30190961,"ECCENTRICITY":0.00010728,"INCLINATION":53.1601,"RA_OF_ASC_NODE":101.9495,"ARG_OF_PERICENTER":115.0692,"MEAN_ANOMALY":245.042,"EPHEMERIS_TYPE":0,"CLASSIFICATION_TYPE":"U","NORAD_CAT_ID":61717,"ELEMENT_SET_NO":999,"REV_AT_EPOCH":7713,"BSTAR":-1.1542636e-5,"MEAN_MOTION_DOT":-7.01e-6,"MEAN_MOTION_DDOT":0}]
